{
    "links": {
        "self": "http://www.neowsapp.com/rest/v1/neo/3670704?api_key=iIulBulltgU6a56xZRHN4H3l9WmuAYTsLGpBGhQ2"
    },
    "id": "3670704",
    "neo_reference_id": "3670704",
    "name": "(2014 JX24)",
    "designation": "2014 JX24",
    "nasa_jpl_url": "http://ssd.jpl.nasa.gov/sbdb.cgi?sstr=3670704",
    "absolute_magnitude_h": 26.9,
    "estimated_diameter": {
        "kilometers": {
            "estimated_diameter_min": 0.0110803882,
            "estimated_diameter_max": 0.0247765013
        },
        "meters": {
            "estimated_diameter_min": 11.0803882126,
            "estimated_diameter_max": 24.7765012606
        },
        "miles": {
            "estimated_diameter_min": 0.0068850319,
            "estimated_diameter_max": 0.0153953994
        },
        "feet": {
            "estimated_diameter_min": 36.3529808636,
            "estimated_diameter_max": 81.2877363957
        }
    },
    "is_potentially_hazardous_asteroid": false,
    "close_approach_data": [
        {
            "close_approach_date": "2014-05-04",
            "close_approach_date_full": "2014-May-04 05:31",
            "epoch_date_close_approach": 1399181460000,
            "relative_velocity": {
                "kilometers_per_second": "9.0551028349",
                "kilometers_per_hour": "32598.3702055727",
                "miles_per_hour": "20255.359531346"
            },
            "miss_distance": {
                "astronomical": "0.0177780468",
                "lunar": "6.9156602052",
                "kilometers": "2659557.934040316",
                "miles": "1652572.6693997208"
            },
            "orbiting_body": "Earth"
        }
    ],
    "orbital_data": {
        "orbit_id": "5",
        "orbit_determination_date": "2019-07-18 07:26:53",
        "first_observation_date": "2014-05-05",
        "last_observation_date": "2014-05-07",
        "data_arc_in_days": 2,
        "observations_used": 24,
        "orbit_uncertainty": "8",
        "minimum_orbit_intersection": ".0160161",
        "jupiter_tisserand_invariant": "3.981",
        "epoch_osculation": "2456783.5",
        "eccentricity": ".4231488225383088",
        "semi_major_axis": "1.763446305268385",
        "inclination": "12.39528952034705",
        "ascending_node_longitude": "223.1316642770386",
        "orbital_period": "855.3459189271003",
        "perihelion_distance": "1.017246077584537",
        "perihelion_argument": "347.3647146871862",
        "aphelion_distance": "2.509646532952234",
        "perihelion_time": "2456770.688312433792",
        "mean_anomaly": "5.392213164026297",
        "mean_motion": ".4208823495078629",
        "equinox": "J2000",
        "orbit_class": {
            "orbit_class_type": "AMO",
            "orbit_class_description": "Near-Earth asteroid orbits similar to that of 1221 Amor",
            "orbit_class_range": "1.017 AU < q (perihelion) < 1.3 AU"
        }
    },
    "is_sentry_object": false
}